[{"OBJECT_NAME":"KUIPER-00014","OBJECT_ID":"2025-088G","EPOCH":"2026-03-09T12:14:38.382144","MEAN_MOTION":14.79898503,"ECCENTRICITY":3.348e-5,"INCLINATION":51.9,"RA_OF_ASC_NODE":109.8608,"ARG_OF_PERICENTER":71.1375,"MEAN_ANOMALY":288.9623,"EPHEMERIS_TYPE":0,"CLASSIFICATION_TYPE":"U","NORAD_CAT_ID":63730,"ELEMENT_SET_NO":999,"REV_AT_EPOCH":4734,"BSTAR":0.0006834098,"MEAN_MOTION_DOT":4.988e-5,"MEAN_MOTION_DDOT":0},{"OBJECT_NAME":"SL-16 DEB","OBJECT_ID":"1992-093EU","EPOCH":"2026-03-09T17:06:24.077952","MEAN_MOTION":14.70798925,"ECCENTRICITY":0.00534761,"INCLINATION":70.8385,"RA_OF_ASC_NODE":169.9781,"ARG_OF_PERICENTER":96.5704,"MEAN_ANOMALY":25.898,"EPHEMERIS_TYPE":0,"CLASSIFICATION_TYPE":"U","NORAD_CAT_ID":22455,"ELEMENT_SET_NO":999,"REV_AT_EPOCH":70194,"BSTAR":0.0039149848,"MEAN_MOTION_DOT":0.00024492,"MEAN_MOTION_DDOT":0}]
